{
  "type": "FeatureCollection",
  "features": [
    {
      "type": "Feature",
      "properties": {
        "norad_id": 29760,
        "name": "FENGYUN 1C DEB",
        "group": "fengyun-1c-debris",
        "lat": -44.86089564297066,
        "lon": 7.416518998543695,
        "alt_km": 965.1783302648128,
        "timestamp": "2025-12-22T16:55:17.734154+00:00",
        "meta_object_name": "FENGYUN 1C DEB",
        "meta_object_id": "1999-025BA",
        "meta_epoch": "2025-12-21T12:09:18.629568",
        "meta_mean_motion": 14.0829423,
        "meta_eccentricity": 0.01312389,
        "meta_inclination": 98.7626,
        "meta_ra_of_asc_node": 357.423,
        "meta_arg_of_pericenter": 148.882,
        "meta_mean_anomaly": 212.0207,
        "meta_ephemeris_type": 0,
        "meta_classification_type": "U",
        "meta_norad_cat_id": 29760,
        "meta_element_set_no": 999,
        "meta_rev_at_epoch": 97216,
        "meta_bstar": 0.00022594043,
        "meta_mean_motion_dot": 3.76e-06,
        "meta_mean_motion_ddot": 0,
        "tle_line1": "1 29760U 99025BA  25355.50646562  .00000376  00000+0  22594-3 0  9993",
        "tle_line2": "2 29760  98.7626 357.4230 0131238 148.8820 212.0207 14.08294230972169"
      },
      "geometry": {
        "type": "Point",
        "coordinates": [
          7.416518998543695,
          -44.86089564297066
        ]
      }
    },
    {
      "type": "Feature",
      "properties": {
        "norad_id": 29762,
        "name": "FENGYUN 1C DEB",
        "group": "fengyun-1c-debris",
        "lat": 72.2091138059177,
        "lon": -48.82433106767707,
        "alt_km": 897.4014471428318,
        "timestamp": "2025-12-22T16:55:17.734165+00:00",
        "meta_object_name": "FENGYUN 1C DEB",
        "meta_object_id": "1999-025BC",
        "meta_epoch": "2025-12-21T17:47:34.465632",
        "meta_mean_motion": 14.22600374,
        "meta_eccentricity": 0.02035076,
        "meta_inclination": 98.5802,
        "meta_ra_of_asc_node": 338.3034,
        "meta_arg_of_pericenter": 309.4176,
        "meta_mean_anomaly": 230.4756,
        "meta_ephemeris_type": 0,
        "meta_classification_type": "U",
        "meta_norad_cat_id": 29762,
        "meta_element_set_no": 999,
        "meta_rev_at_epoch": 98076,
        "meta_bstar": 0.00028311408,
        "meta_mean_motion_dot": 7.34e-06,
        "meta_mean_motion_ddot": 0,
        "tle_line1": "1 29762U 99025BC  25355.74137113  .00000734  00000+0  28311-3 0  9999",
        "tle_line2": "2 29762  98.5802 338.3034 0203507 309.4176 230.4756 14.22600374980767"
      },
      "geometry": {
        "type": "Point",
        "coordinates": [
          -48.82433106767707,
          72.2091138059177
        ]
      }
    },
    {
      "type": "Feature",
      "properties": {
        "norad_id": 29763,
        "name": "FENGYUN 1C DEB",
        "group": "fengyun-1c-debris",
        "lat": 49.096366551465714,
        "lon": 166.07442110801546,
        "alt_km": 776.3051697085739,
        "timestamp": "2025-12-22T16:55:17.734175+00:00",
        "meta_object_name": "FENGYUN 1C DEB",
        "meta_object_id": "1999-025BD",
        "meta_epoch": "2025-12-22T04:26:37.161312",
        "meta_mean_motion": 14.07881821,
        "meta_eccentricity": 0.01278442,
        "meta_inclination": 98.7623,
        "meta_ra_of_asc_node": 335.3149,
        "meta_arg_of_pericenter": 153.8884,
        "meta_mean_anomaly": 223.0565,
        "meta_ephemeris_type": 0,
        "meta_classification_type": "U",
        "meta_norad_cat_id": 29763,
        "meta_element_set_no": 999,
        "meta_rev_at_epoch": 97183,
        "meta_bstar": 0.00014347288,
        "meta_mean_motion_dot": 2.2e-06,
        "meta_mean_motion_ddot": 0,
        "tle_line1": "1 29763U 99025BD  25356.18515233  .00000220  00000+0  14347-3 0  9996",
        "tle_line2": "2 29763  98.7623 335.3149 0127844 153.8884 223.0565 14.07881821971836"
      },
      "geometry": {
        "type": "Point",
        "coordinates": [
          166.07442110801546,
          49.096366551465714
        ]
      }
    },
    {
      "type": "Feature",
      "properties": {
        "norad_id": 29765,
        "name": "FENGYUN 1C DEB",
        "group": "fengyun-1c-debris",
        "lat": 10.663415850457572,
        "lon": -163.74524492533584,
        "alt_km": 898.0355497800238,
        "timestamp": "2025-12-22T16:55:17.734185+00:00",
        "meta_object_name": "FENGYUN 1C DEB",
        "meta_object_id": "1999-025BF",
        "meta_epoch": "2025-12-21T01:00:15.327648",
        "meta_mean_motion": 14.02152769,
        "meta_eccentricity": 0.00601345,
        "meta_inclination": 98.8291,
        "meta_ra_of_asc_node": 12.9669,
        "meta_arg_of_pericenter": 69.777,
        "meta_mean_anomaly": 347.7544,
        "meta_ephemeris_type": 0,
        "meta_classification_type": "U",
        "meta_norad_cat_id": 29765,
        "meta_element_set_no": 999,
        "meta_rev_at_epoch": 96867,
        "meta_bstar": -6.7729553e-05,
        "meta_mean_motion_dot": -1.47e-06,
        "meta_mean_motion_ddot": 0,
        "tle_line1": "1 29765U 99025BF  25355.04184407 -.00000147  00000+0 -67730-4 0  9992",
        "tle_line2": "2 29765  98.8291  12.9669 0060134  69.7770 347.7544 14.02152769968678"
      },
      "geometry": {
        "type": "Point",
        "coordinates": [
          -163.74524492533584,
          10.663415850457572
        ]
      }
    },
    {
      "type": "Feature",
      "properties": {
        "norad_id": 29766,
        "name": "FENGYUN 1C DEB",
        "group": "fengyun-1c-debris",
        "lat": 45.016523985264925,
        "lon": 134.59024784866443,
        "alt_km": 961.7723626839579,
        "timestamp": "2025-12-22T16:55:17.734196+00:00",
        "meta_object_name": "FENGYUN 1C DEB",
        "meta_object_id": "1999-025BG",
        "meta_epoch": "2025-12-21T19:54:24.207840",
        "meta_mean_motion": 13.97081008,
        "meta_eccentricity": 0.01457227,
        "meta_inclination": 98.6865,
        "meta_ra_of_asc_node": 304.9638,
        "meta_arg_of_pericenter": 262.9399,
        "meta_mean_anomaly": 151.1601,
        "meta_ephemeris_type": 0,
        "meta_classification_type": "U",
        "meta_norad_cat_id": 29766,
        "meta_element_set_no": 999,
        "meta_rev_at_epoch": 95931,
        "meta_bstar": 0.00075292362,
        "meta_mean_motion_dot": 1.108e-05,
        "meta_mean_motion_ddot": 0,
        "tle_line1": "1 29766U 99025BG  25355.82944685  .00001108  00000+0  75292-3 0  9998",
        "tle_line2": "2 29766  98.6865 304.9638 0145722 262.9399 151.1601 13.97081008959317"
      },
      "geometry": {
        "type": "Point",
        "coordinates": [
          134.59024784866443,
          45.016523985264925
        ]
      }
    },
    {
      "type": "Feature",
      "properties": {
        "norad_id": 29767,
        "name": "FENGYUN 1C DEB",
        "group": "fengyun-1c-debris",
        "lat": -68.47220197505318,
        "lon": 123.00235380866394,
        "alt_km": 1079.1828341090823,
        "timestamp": "2025-12-22T16:55:17.734218+00:00",
        "meta_object_name": "FENGYUN 1C DEB",
        "meta_object_id": "1999-025BH",
        "meta_epoch": "2025-12-21T21:02:39.509952",
        "meta_mean_motion": 14.03429552,
        "meta_eccentricity": 0.03329392,
        "meta_inclination": 98.1986,
        "meta_ra_of_asc_node": 323.6905,
        "meta_arg_of_pericenter": 35.3233,
        "meta_mean_anomaly": 354.8956,
        "meta_ephemeris_type": 0,
        "meta_classification_type": "U",
        "meta_norad_cat_id": 29767,
        "meta_element_set_no": 999,
        "meta_rev_at_epoch": 95728,
        "meta_bstar": 0.0022488766,
        "meta_mean_motion_dot": 5.722e-05,
        "meta_mean_motion_ddot": 0,
        "tle_line1": "1 29767U 99025BH  25355.87684618  .00005722  00000+0  22489-2 0  9996",
        "tle_line2": "2 29767  98.1986 323.6905 0332939  35.3233 354.8956 14.03429552957286"
      },
      "geometry": {
        "type": "Point",
        "coordinates": [
          123.00235380866394,
          -68.47220197505318
        ]
      }
    },
    {
      "type": "Feature",
      "properties": {
        "norad_id": 29769,
        "name": "FENGYUN 1C DEB",
        "group": "fengyun-1c-debris",
        "lat": -50.05851714814848,
        "lon": 65.20529883932348,
        "alt_km": 914.2278970083189,
        "timestamp": "2025-12-22T16:55:17.734231+00:00",
        "meta_object_name": "FENGYUN 1C DEB",
        "meta_object_id": "1999-025BK",
        "meta_epoch": "2025-12-20T15:54:01.509408",
        "meta_mean_motion": 14.13567128,
        "meta_eccentricity": 0.0093305,
        "meta_inclination": 99.1051,
        "meta_ra_of_asc_node": 52.0854,
        "meta_arg_of_pericenter": 108.4015,
        "meta_mean_anomaly": 252.7329,
        "meta_ephemeris_type": 0,
        "meta_classification_type": "U",
        "meta_norad_cat_id": 29769,
        "meta_element_set_no": 999,
        "meta_rev_at_epoch": 96793,
        "meta_bstar": 0.0009882944,
        "meta_mean_motion_dot": 1.896e-05,
        "meta_mean_motion_ddot": 0,
        "tle_line1": "1 29769U 99025BK  25354.66251747  .00001896  00000+0  98829-3 0  9997",
        "tle_line2": "2 29769  99.1051  52.0854 0093305 108.4015 252.7329 14.13567128967935"
      },
      "geometry": {
        "type": "Point",
        "coordinates": [
          65.20529883932348,
          -50.05851714814848
        ]
      }
    }
  ]
}